GLOBALSTAR M084         
1 38040U 11080A   25052.72420987 -.00000091  00000+0  73180-4 0  9991
2 38040  52.0020  39.9824 0000590 114.8984  55.8548 12.62262380608089
GLOBALSTAR M080         
1 38041U 11080B   25052.98486491 -.00000093  00000+0  60941-4 0  9995
2 38041  52.0072  40.7585 0000822 105.8600 287.9795 12.62277237608241
GLOBALSTAR M082         
1 38042U 11080C   25052.92712895 -.00000091  00000+0  71721-4 0  9996
2 38042  52.0104 356.3666 0000405   5.1775  68.2587 12.62273159608941
GLOBALSTAR M092         
1 38043U 11080D   25052.84301497 -.00000105  00000+0 -89612-5 0  9996
2 38043  52.0078  86.9925 0000473 129.8212  41.2152 12.62273119607383
GLOBALSTAR M090         
1 38044U 11080E   25052.87262171 -.00000086  00000+0  97427-4 0  9994
2 38044  51.9914 350.4909 0000489  48.4729  16.1051 12.62266926609051
GLOBALSTAR M086         
1 38045U 11080F   25052.88813854 -.00000087  00000+0  92663-4 0  9994
2 38045  51.9927 350.9857 0001385  65.8805 309.6693 12.62266880609003
GLOBALSTAR M097         
1 39072U 13005A   25052.83220324 -.00000068  00000+0  19689-3 0  9998
2 39072  52.0033 265.5886 0000990  69.4814 290.6159 12.62270352556240
GLOBALSTAR M093         
1 39073U 13005B   25052.88443265 -.00000072  00000+0  17577-3 0  9994
2 39073  51.9792 258.9127 0000992  70.9698 289.1276 12.62261859556205
